{
    "links": {
        "self": "http://www.neowsapp.com/rest/v1/neo/54053781?api_key=iIulBulltgU6a56xZRHN4H3l9WmuAYTsLGpBGhQ2"
    },
    "id": "54053781",
    "neo_reference_id": "54053781",
    "name": "(2020 RP1)",
    "designation": "2020 RP1",
    "nasa_jpl_url": "http://ssd.jpl.nasa.gov/sbdb.cgi?sstr=54053781",
    "absolute_magnitude_h": 23.8,
    "estimated_diameter": {
        "kilometers": {
            "estimated_diameter_min": 0.046190746,
            "estimated_diameter_max": 0.1032856481
        },
        "meters": {
            "estimated_diameter_min": 46.1907460282,
            "estimated_diameter_max": 103.2856480504
        },
        "miles": {
            "estimated_diameter_min": 0.0287015901,
            "estimated_diameter_max": 0.0641787064
        },
        "feet": {
            "estimated_diameter_min": 151.544447199,
            "estimated_diameter_max": 338.8636855496
        }
    },
    "is_potentially_hazardous_asteroid": false,
    "close_approach_data": [
        {
            "close_approach_date": "2020-08-30",
            "close_approach_date_full": "2020-Aug-30 06:06",
            "epoch_date_close_approach": 1598767560000,
            "relative_velocity": {
                "kilometers_per_second": "16.6663761354",
                "kilometers_per_hour": "59998.9540874267",
                "miles_per_hour": "37281.016777268"
            },
            "miss_distance": {
                "astronomical": "0.0757632585",
                "lunar": "29.4719075565",
                "kilometers": "11334022.095859395",
                "miles": "7042634.759053851"
            },
            "orbiting_body": "Earth"
        }
    ],
    "orbital_data": {
        "orbit_id": "2",
        "orbit_determination_date": "2020-09-12 06:54:10",
        "first_observation_date": "2020-09-07",
        "last_observation_date": "2020-09-11",
        "data_arc_in_days": 4,
        "observations_used": 26,
        "orbit_uncertainty": "9",
        "minimum_orbit_intersection": ".0281335",
        "jupiter_tisserand_invariant": "3.687",
        "epoch_osculation": "2459101.5",
        "eccentricity": ".571271820492257",
        "semi_major_axis": "1.928937415440387",
        "inclination": "8.100204468730333",
        "ascending_node_longitude": "162.5761685105499",
        "orbital_period": "978.5333519927112",
        "perihelion_distance": ".826989826506128",
        "perihelion_argument": "107.944819462263",
        "aphelion_distance": "3.030885004374646",
        "perihelion_time": "2459047.365502670745",
        "mean_anomaly": "19.91594767704654",
        "mean_motion": ".3678975267086058",
        "equinox": "J2000",
        "orbit_class": {
            "orbit_class_type": "APO",
            "orbit_class_description": "Near-Earth asteroid orbits which cross the Earth’s orbit similar to that of 1862 Apollo",
            "orbit_class_range": "a (semi-major axis) > 1.0 AU; q (perihelion) < 1.017 AU"
        }
    },
    "is_sentry_object": false
}